
CZ-12B R/B
1 69327U 26121C   26175.07150590  .00000050  00000+0  20083-4 0  9998
2 69327  89.0324 299.6896 0194380 345.1704  14.3823 14.04087543  3193

GUOWANG TEST OBJECT A
1 69320U 26120A   26172.81697494  .00008673  00000+0  23140-3 0  9993
2 69320  55.0017   6.9033 0011359 337.7695  22.2839 15.38939558  3409

GUOWANG TEST OBJECT B
1 69321U 26120B   26173.53014027  .00032813  00000+0  84693-3 0  9992
2 69321  54.9997   3.6825 0010715 345.2574  14.8140 15.38866316  3518

GUOWANG TEST OBJECT C
1 69322U 26120C   26175.21033880  .00011605  00000+0  29858-3 0  9996
2 69322  54.9992 356.0264 0011909 355.5868   4.5054 15.39699135  3774

GUOWANG TEST OBJECT D
1 69323U 26120D   26175.21522844  .00008472  00000+0  22813-3 0  9992
2 69323  54.9978 356.0543 0012199   2.1203 357.9875 15.38678599  3775

QIANFAN-163
1 69325U 26121A   26171.83152253  .00000035  00000+0  30105-4 0  9993
2 69325  89.0159 300.1473 0020476 178.2353 181.8879 13.59758614  2659

QIANFAN-164
1 69326U 26121B   26162.41240743  .00000110  00000+0  12976-3 0  9999
2 69326  89.0157 301.0998 0019383 205.3124 154.7084 13.60355100  1373

STARLINK-37617
1 69314U 26119U   26175.25002315 -.00015107  00000+0 -27668-3 0  9998
2 69314  97.2858 201.2120 0000464 100.2625  25.7928 15.49185136  5171

STARLINK-37619
1 69309U 26119P   26175.25002315 -.02954181  00000+0 -81993-1 0  9997
2 69309  97.2856 201.2495 0001909  93.4625  99.1042 15.40677205  5172

STARLINK-37627
1 69315U 26119V   26175.25002315 -.00012452  00000+0 -22768-3 0  9995
2 69315  97.2860 201.2175 0000835  82.0273  54.9046 15.49186568  5178

STARLINK-37676
1 69313U 26119T   26175.25002315 -.02417698  00000+0 -65453-1 0  9992
2 69313  97.2848 201.2911 0001878  89.6011 200.3327 15.41278883  5174

STARLINK-37689
1 69308U 26119N   26175.32236899  .00053402  00000+0  97612-3 0  9999
2 69308  97.2882 201.0608 0000269 137.9603 222.1669 15.49212451  5138

STARLINK-37701
1 69306U 26119L   26175.25002315 -.01929115  00000+0 -38671-1 0  9997
2 69306  97.2856 201.2046 0002144  74.0035  39.3412 15.49795841  5176

STARLINK-37730
1 69303U 26119H   26175.25002315 -.02418863  00000+0 -63247-1 0  9995
2 69303  97.2859 201.2246 0001768  57.2504  76.6474 15.42319011  5179

STARLINK-37731
1 69304U 26119J   26175.32580399  .00058566  00000+0  10697-2 0  9995
2 69304  97.2845 201.0547 0000940 102.7899 257.3458 15.49211576  5131

STARLINK-37732
1 69307U 26119M   26175.25002315 -.02860031  00000+0 -86181-1 0  9999
2 69307  97.2857 201.2567 0002231 105.7948 107.8209 15.38055512  5175

STARLINK-37733
1 69329U 26122A   26175.25002315 -.00010210  00000+0 -18631-3 0  9998
2 69329  97.2852 204.9408 0001291  90.8916 236.4701 15.49188964  4481

STARLINK-37734
1 69305U 26119K   26175.31989663  .00059333  00000+0  10823-2 0  9996
2 69305  97.2864 201.2175 0000568 208.6200 151.5020 15.49244218  5140

STARLINK-37738
1 69316U 26119W   26175.25002315 -.00013034  00000+0 -23839-3 0  9993
2 69316  97.2855 201.2167 0001486  91.5724  44.0911 15.49187077  5170

STARLINK-37768
1 69331U 26122C   26175.25002315 -.00018865  00000+0 -34609-3 0  9998
2 69331  97.2850 204.8682 0001426  77.2334  78.0538 15.49184340  4435

STARLINK-37772
1 69330U 26122B   26175.25002315 -.00461672  00000+0 -89089-2 0  9996
2 69330  97.2852 204.9740 0001781  92.0549 314.9988 15.49457630  4435

STARLINK-37790
1 69312U 26119S   26175.25002315 -.00013451  00000+0 -24612-3 0  9992
2 69312  97.2858 201.2058 0001163  93.3156  16.2493 15.49184957  5179

STARLINK-37794
1 69310U 26119Q   26175.32079526  .00036685  00000+0  67264-3 0  9998
2 69310  97.2864 201.2160 0000857  97.2807 262.8541 15.49206173  5148

STARLINK-37795
1 69311U 26119R   26175.31781791  .00038586  00000+0  70718-3 0  9992
2 69311  97.2848 201.0650 0000208 230.3114 129.8119 15.49208827  5134

STARLINK-37799
1 69317U 26119X   26175.25002315 -.02432436  00000+0 -65766-1 0  9990
2 69317  97.2854 201.3155 0001501  97.4990 252.1448 15.41344318  5134

STARLINK-37802
1 69318U 26119Y   26175.25002315 -.00052802  00000+0 -97492-3 0  9997
2 69318  97.2947 201.2758 0001110 106.0652 166.1959 15.49212098  5187

STARLINK-37803
1 69319U 26119Z   26175.25002315 -.00019979  00000+0 -36668-3 0  9994
2 69319  97.2859 201.1426 0000781  96.8995 224.2487 15.49184028  5138

STARLINK-37804
1 69302U 26119G   26175.32472708  .00059805  00000+0  10921-2 0  9994
2 69302  97.2832 201.0562 0000571 108.3295 251.8018 15.49212157  5131

STARLINK-37833
1 69332U 26122D   26175.25002315 -.00014106  00000+0 -25821-3 0  9999
2 69332  97.2852 204.9397 0001148  69.6304 255.1257 15.49183696  4434

SZ-22 MODULE
1 69328U 25272C   26174.76837442  .00017175  00000+0  20641-3 0  9993
2 69328  41.4798 282.0925 0006557 143.8557 216.2726 15.60443962  4355
