OBJECT_NAME,OBJECT_ID,EPOCH,MEAN_MOTION,ECCENTRICITY,INCLINATION,RA_OF_ASC_NODE,ARG_OF_PERICENTER,MEAN_ANOMALY,EPHEMERIS_TYPE,CLASSIFICATION_TYPE,NORAD_CAT_ID,ELEMENT_SET_NO,REV_AT_EPOCH,BSTAR,MEAN_MOTION_DOT,MEAN_MOTION_DDOT
STARLINK-37804,2026-119G,2026-06-24T07:47:36.419712,15.49212157,.00005719,97.2832,201.0562,108.3295,251.8018,0,U,69302,999,513,.10920861E-2,.59805E-3,0
STARLINK-37730,2026-119H,2026-06-24T06:00:02.000160,15.42319011,.00017688,97.2859,201.2246,57.2504,76.6474,0,U,69303,999,517,-.63246843E-1,-.2418863E-1,0
STARLINK-37731,2026-119J,2026-06-24T07:49:09.464736,15.49211576,.00009405,97.2845,201.0547,102.7899,257.3458,0,U,69304,999,513,.10696872E-2,.58566E-3,0
STARLINK-37734,2026-119K,2026-06-24T07:40:39.068832,15.49244218,.00005684,97.2864,201.2175,208.6200,151.5020,0,U,69305,999,514,.10823338E-2,.59333E-3,0
STARLINK-37701,2026-119L,2026-06-24T06:00:02.000160,15.49795841,.00021447,97.2856,201.2046,74.0035,39.3412,0,U,69306,999,517,-.3867116E-1,-.1929115E-1,0
STARLINK-37732,2026-119M,2026-06-24T06:00:02.000160,15.38055512,.00022312,97.2857,201.2567,105.7948,107.8209,0,U,69307,999,517,-.86180921E-1,-.2860031E-1,0
STARLINK-37689,2026-119N,2026-06-24T07:44:12.680736,15.49212451,.0000269,97.2882,201.0608,137.9603,222.1669,0,U,69308,999,513,.97611571E-3,.53402E-3,0
STARLINK-37619,2026-119P,2026-06-24T06:00:02.000160,15.40677205,.00019098,97.2856,201.2495,93.4625,99.1042,0,U,69309,999,517,-.8199296E-1,-.2954181E-1,0
STARLINK-37794,2026-119Q,2026-06-24T07:41:56.710464,15.49206173,.00008579,97.2864,201.2160,97.2807,262.8541,0,U,69310,999,514,.67264405E-3,.36685E-3,0
STARLINK-37795,2026-119R,2026-06-24T07:37:39.467424,15.49208827,.0000208,97.2848,201.0650,230.3114,129.8119,0,U,69311,999,513,.70718232E-3,.38586E-3,0
STARLINK-37790,2026-119S,2026-06-24T06:00:02.000160,15.49184957,.00011636,97.2858,201.2058,93.3156,16.2493,0,U,69312,999,517,-.24612097E-3,-.13451E-3,0
STARLINK-37676,2026-119T,2026-06-24T06:00:02.000160,15.41278883,.00018781,97.2848,201.2911,89.6011,200.3327,0,U,69313,999,517,-.6545315E-1,-.2417698E-1,0
STARLINK-37617,2026-119U,2026-06-24T06:00:02.000160,15.49185136,.00004645,97.2858,201.2120,100.2625,25.7928,0,U,69314,999,517,-.27667867E-3,-.15107E-3,0
STARLINK-37627,2026-119V,2026-06-24T06:00:02.000160,15.49186568,.00008357,97.2860,201.2175,82.0273,54.9046,0,U,69315,999,517,-.22767932E-3,-.12452E-3,0
STARLINK-37738,2026-119W,2026-06-24T06:00:02.000160,15.49187077,.0001486,97.2855,201.2167,91.5724,44.0911,0,U,69316,999,517,-.23838777E-3,-.13034E-3,0
STARLINK-37799,2026-119X,2026-06-24T06:00:02.000160,15.41344318,.0001501,97.2854,201.3155,97.4990,252.1448,0,U,69317,999,513,-.65766242E-1,-.2432436E-1,0
STARLINK-37802,2026-119Y,2026-06-24T06:00:02.000160,15.49212098,.00011102,97.2947,201.2758,106.0652,166.1959,0,U,69318,999,518,-.97492357E-3,-.52802E-3,0
STARLINK-37803,2026-119Z,2026-06-24T06:00:02.000160,15.49184028,.00007814,97.2859,201.1426,96.8995,224.2487,0,U,69319,999,513,-.36668444E-3,-.19979E-3,0
GUOWANG TEST OBJECT A,2026-120A,2026-06-21T19:36:26.634816,15.38939558,.00113591,55.0017,6.9033,337.7695,22.2839,0,U,69320,999,340,.23139514E-3,.8673E-4,0
GUOWANG TEST OBJECT B,2026-120B,2026-06-22T12:43:24.119328,15.38866316,.00107159,54.9997,3.6825,345.2574,14.8140,0,U,69321,999,351,.84693322E-3,.32813E-3,0
GUOWANG TEST OBJECT C,2026-120C,2026-06-24T05:02:53.272320,15.39699135,.00119095,54.9992,356.0264,355.5868,4.5054,0,U,69322,999,377,.29857847E-3,.11605E-3,0
GUOWANG TEST OBJECT D,2026-120D,2026-06-24T05:09:55.737216,15.38678599,.00121998,54.9978,356.0543,2.1203,357.9875,0,U,69323,999,377,.22812599E-3,.8472E-4,0
QIANFAN-163,2026-121A,2026-06-20T19:57:23.546592,13.59758614,.00204763,89.0159,300.1473,178.2353,181.8879,0,U,69325,999,265,.30105417E-4,.35E-6,0
QIANFAN-164,2026-121B,2026-06-11T09:53:52.001952,13.60355100,.0019383,89.0157,301.0998,205.3124,154.7084,0,U,69326,999,137,.12975542E-3,.11E-5,0
CZ-12B R/B,2026-121C,2026-06-24T01:42:58.109760,14.04087543,.01943807,89.0324,299.6896,345.1704,14.3823,0,U,69327,999,319,.20083164E-4,.5E-6,0
SZ-22 MODULE,2025-272C,2026-06-23T18:26:27.549888,15.60443962,.00065577,41.4798,282.0925,143.8557,216.2726,0,U,69328,999,435,.20640767E-3,.17175E-3,0
STARLINK-37733,2026-122A,2026-06-24T06:00:02.000160,15.49188964,.00012916,97.2852,204.9408,90.8916,236.4701,0,U,69329,999,448,-.18631156E-3,-.1021E-3,0
STARLINK-37772,2026-122B,2026-06-24T06:00:02.000160,15.49457630,.00017811,97.2852,204.9740,92.0549,314.9988,0,U,69330,999,443,-.89089061E-2,-.461672E-2,0
STARLINK-37768,2026-122C,2026-06-24T06:00:02.000160,15.49184340,.00014261,97.2850,204.8682,77.2334,78.0538,0,U,69331,999,443,-.34609119E-3,-.18865E-3,0
STARLINK-37833,2026-122D,2026-06-24T06:00:02.000160,15.49183696,.00011486,97.2852,204.9397,69.6304,255.1257,0,U,69332,999,443,-.25821323E-3,-.14106E-3,0
